CZ-2D R/B               
1 28738U 05024B   26062.99992175  .00056390  00000+0  70720-3 0  9997
2 28738  97.3594  77.9392 0006724  61.1543 299.0388 15.59546967138898
ALOS (DAICHI)           
1 28931U 06002A   26062.85251545  .00001943  00000+0  33385-3 0  9993
2 28931  98.1208  18.8377 0001133  51.0197 309.1109 14.69787621 72629
H-2A R/B                
1 28932U 06002B   26063.00008419  .00013824  00000+0  69344-3 0  9997
2 28932  98.2400 209.5357 0051870 260.5840  98.9524 15.16272452 93572
RESURS-DK 1             
1 29228U 06021A   26062.91484494  .00003579  00000+0  21006-3 0  9996
2 29228  69.9304 251.9622 0002432 165.6205 194.5031 15.12697372 86650
CZ-4B R/B               
1 29507U 06046C   26063.13394818  .00007300  00000+0  36992-3 0  9994
2 29507  97.5602 108.0574 0031726 287.5080  72.2686 15.16836244 59205
CZ-2C R/B               
1 31114U 07010B   26063.16032592  .00000176  00000+0  10010-3 0  9991
2 31114  98.3977 176.7164 0058051 310.9805  48.6359 14.20243958978931
COSMO-SKYMED 1          
1 31598U 07023A   26063.18166340  .00004929  00000+0  43923-3 0  9991
2 31598  97.8861 254.1701 0000823  90.6181 269.5134 14.96483104 14088
COSMOS 2428             
1 31792U 07029A   26062.80032068  .00000068  00000+0  62227-4 0  9999
2 31792  70.9422 215.7044 0008791 283.2816  76.7324 14.12944514963266
SL-16 R/B               
1 31793U 07029B   26062.77530315 -.00000153  00000+0 -54637-4 0  9997
2 31793  70.9756 184.8160 0002426 278.0929 189.2811 14.14833889964534
KORONAS-FOTON           
1 33504U 09003A   26063.05832244  .00017953  00000+0  40320-3 0  9998
2 33504  82.4280 281.7334 0010838 168.7833 191.3658 15.43167530944875
CZ-2C R/B               
1 37731U 11030B   26062.80188186  .00002427  00000+0  31136-3 0  9993
2 37731  97.8533  20.1831 0052966  11.2331  47.6410 14.81194075789222
H-2A R/B                
1 38341U 12025E   26062.83929232  .00005533  00000+0  50126-3 0  9995
2 38341  98.4716  29.4170 0043885 333.6566  26.2421 14.95104186747340
SHIJIAN-16 (SJ-16)      
1 39358U 13057A   26063.19882497  .00005024  00000+0  49301-3 0  9999
2 39358  74.9733 195.4807 0015625 126.9807 233.2814 14.92316799670680
SL-4 R/B                
1 39679U 14021B   26063.10976345  .00022432  00000+0  49244-3 0  9992
2 39679  51.6089   4.4953 0097984  82.6607 278.5500 15.38961697655419
ALOS-2                  
1 39766U 14029A   26063.24063209  .00003246  00000+0  44123-3 0  9991
2 39766  97.9205 161.9169 0001506 100.1773 259.9609 14.79479069636066
YAOGAN-29               
1 41038U 15069A   26063.19427810  .00000425  00000+0  58970-4 0  9999
2 41038  98.0149  91.6089 0002238  45.3358 314.8038 14.82988223555060
ASTRO-H (HITOMI)        
1 41337U 16012A   26063.14748952  .00005164  00000+0  30445-3 0  9999
2 41337  31.0006  32.3099 0010017 275.9632  83.9865 15.09958059551392
